IRIDIUM 26              
1 24903U 97043A   26011.98244541  .00000413  00000+0  13176-3 0  9996
2 24903  86.3945  22.8458 0002399  92.1181 268.0291 14.37356172486734
IRIDIUM 22              
1 24907U 97043E   26011.94684300  .00000368  00000+0  11947-3 0  9990
2 24907  86.3946  26.5801 0002276  87.9606 272.1852 14.36146463486738
DUMMY MASS 1            
1 24925U 97048A   26011.81491179  .00000381  00000+0  39141-4 0  9993
2 24925  86.3320  38.7824 0008662 117.1017 243.1093 14.87212104536138
DUMMY MASS 2            
1 24926U 97048B   26011.81192967  .00000376  00000+0  38781-4 0  9990
2 24926  86.3321  40.4301 0009137 127.3095 232.8964 14.86962480535901
IRIDIUM 29              
1 24944U 97051A   26011.82391695  .00000314  00000+0  99873-4 0  9995
2 24944  86.3926  56.3067 0002076  88.9330 271.2105 14.36689338483220
IRIDIUM 33              
1 24946U 97051C   26011.82907817  .00000286  00000+0  93485-4 0  9997
2 24946  86.3842  55.5863 0009887 111.8112 248.4137 14.35061117482661
IRIDIUM 28              
1 24948U 97051E   26011.80531137  .00000332  00000+0  10422-3 0  9996
2 24948  86.3931  53.7112 0002708  97.4882 262.6623 14.37590264483815
IRIDIUM 36              
1 24967U 97056C   26011.94493015  .00000403  00000+0  12733-3 0  9995
2 24967  86.3947  85.2831 0002426  92.6273 267.5203 14.37816131482214
